LEMUR-2-ANDIS           
1 42838U 17042P   26068.55941107  .00023598  00000+0  79875-3 0  9998
2 42838  97.3659 249.7950 0009101   4.3248 355.8070 15.30557934473198
STARLINK-30397          
1 57771U 23134A   26068.35850402 -.00005090  00000+0 -17551-3 0  9996
2 57771  42.9993 196.5752 0000740 162.6936 197.3941 15.27596688139457
